[{"OBJECT_NAME":"STARLINK-30245","OBJECT_ID":"2023-119L","EPOCH":"2026-03-09T22:00:01.999584","MEAN_MOTION":15.18036601,"ECCENTRICITY":0.00011821,"INCLINATION":43.0006,"RA_OF_ASC_NODE":79.6426,"ARG_OF_PERICENTER":235.8464,"MEAN_ANOMALY":301.7171,"EPHEMERIS_TYPE":0,"CLASSIFICATION_TYPE":"U","NORAD_CAT_ID":57612,"ELEMENT_SET_NO":999,"REV_AT_EPOCH":562,"BSTAR":0.061700366,"MEAN_MOTION_DOT":0.01394408,"MEAN_MOTION_DDOT":0},{"OBJECT_NAME":"TRANSPORTER-10 OBJECT AD","OBJECT_ID":"2024-043AD","EPOCH":"2026-03-09T20:38:52.416960","MEAN_MOTION":15.34189901,"ECCENTRICITY":0.00089841,"INCLINATION":97.547,"RA_OF_ASC_NODE":207.3753,"ARG_OF_PERICENTER":221.4908,"MEAN_ANOMALY":138.5653,"EPHEMERIS_TYPE":0,"CLASSIFICATION_TYPE":"U","NORAD_CAT_ID":59125,"ELEMENT_SET_NO":999,"REV_AT_EPOCH":11202,"BSTAR":0.00036310552,"MEAN_MOTION_DOT":0.00011954,"MEAN_MOTION_DDOT":0}]
